CCSDS_OEM_VERS = 2.0

COMMENT Orbit data are consistent with planetary ephemeris DE-430

CREATION_DATE  = 2024-129T19:13:00
ORIGINATOR     = GSFC FDOA

META_START
OBJECT_NAME          = RST 103026
OBJECT_ID            = 211
CENTER_NAME          = Earth
REF_FRAME            = EME2000
TIME_SYSTEM          = UTC
START_TIME           = 2026-303T07:04:15.882000
USEABLE_START_TIME   = 2026-303T07:04:15.882000
USEABLE_STOP_TIME    = 2026-329T00:05:15.882077
STOP_TIME            = 2026-329T00:05:15.882077
INTERPOLATION        = Lagrange
INTERPOLATION_DEGREE = 5
META_STOP

2028-219T06:45:15.888015   7.096445400124307e+05  -9.356613466390988e+05  -5.007139975310593e+05   4.232884564317341e-01   3.383345306565526e-01   1.339111900248986e-01
2028-220T06:45:15.888015   7.458610022266185e+05  -9.059082197110268e+05  -4.888401535680832e+05   4.148960469517054e-01   3.502774856916818e-01   1.408946625571399e-01
2028-221T06:45:15.888015   7.813124275818630e+05  -8.751550029478231e+05  -4.763768583684779e+05   4.055958227440419e-01   3.614709090973988e-01   1.475500686900408e-01
2028-222T06:45:15.888015   8.159247399867855e+05  -8.434697674820576e+05  -4.633538206694701e+05   3.954895182779791e-01   3.718412662107396e-01   1.538474743152462e-01
2028-223T06:45:15.888015   8.496328837962925e+05  -8.109261714664729e+05  -4.498029377342884e+05   3.846843928029102e-01   3.813322615415818e-01   1.597658474175909e-01
2028-224T00:05:15.888364   8.733836239218103e+05  -7.869324551278616e+05  -4.397067175267190e+05   3.765101080103518e-01   3.876159089000940e-01   1.637964710762616e-01

META_START
OBJECT_NAME          = RST 103026
OBJECT_ID            = 211
CENTER_NAME          = Earth
REF_FRAME            = EME2000
TIME_SYSTEM          = UTC
START_TIME           = 2028-224T00:05:15.888364
USEABLE_START_TIME   = 2028-224T00:05:15.888364
USEABLE_STOP_TIME    = 2028-258T17:25:15.888713
STOP_TIME            = 2028-258T17:25:15.888713
INTERPOLATION        = Lagrange
INTERPOLATION_DEGREE = 5
META_STOP

2028-224T00:05:15.888364   8.733836239218103e+05  -7.869324551278616e+05  -4.397067175267190e+05   3.765101080103518e-01   3.876159089000940e-01   1.637964710762616e-01
2028-225T00:05:15.888364   9.054101958914454e+05  -7.530948854962906e+05  -4.253255800849179e+05   3.647732403514805e-01   3.955020792122162e-01   1.690333567301219e-01
2028-226T00:05:15.888364   9.364058043386638e+05  -7.186173894079986e+05  -4.105093160867625e+05   3.526676555543287e-01   4.024270294289555e-01   1.738689370875525e-01
2028-227T00:05:15.888364   9.663445740625234e+05  -6.835832641944636e+05  -3.952924481015609e+05   3.403330591600180e-01   4.083886990906820e-01   1.783084100340585e-01
2028-228T00:05:15.888364   9.952127456516066e+05  -6.480747916236807e+05  -3.797084970311535e+05   3.279130743291357e-01   4.134112306618007e-01   1.823691629997080e-01
2028-229T00:05:15.888364   1.023009978090804e+06  -6.121714800765268e+05  -3.637891491241915e+05   3.155668464152050e-01   4.175408777086726e-01   1.860789142150784e-01
2028-230T00:05:15.888364   1.049749045001763e+06  -5.759469114055774e+05  -3.475628460528374e+05   3.034404171040266e-01   4.208668876472829e-01   1.894841612341034e-01
2028-231T00:05:15.888364   1.075454309474735e+06  -5.394650269686872e+05  -3.310532165124701e+05   2.916535401576202e-01   4.235225894721865e-01   1.926492584512153e-01
2028-232T00:05:15.888364   1.100158764692074e+06  -5.027766353838142e+05  -3.142777620331793e+05   2.802805201740621e-01   4.256780962483555e-01   1.956510093605255e-01
2028-233T00:05:15.888364   1.123898871574614e+06  -4.659167269498261e+05  -2.972471103812894e+05   2.693244083018125e-01   4.275251595950154e-01   1.985694273181872e-01
2028-234T00:05:15.888364   1.146707829591951e+06  -4.289038715120864e+05  -2.799653869078884e+05   2.587063231121509e-01   4.292462544145203e-01   2.014722341609781e-01
2028-235T00:05:15.888364   1.168608748708313e+06  -3.917425695050563e+05  -2.624319785727446e+05   2.482751765483324e-01   4.309789146481522e-01   2.043990769096969e-01
2028-236T00:05:15.888364   1.189609627924740e+06  -3.544284161236683e+05  -2.446444431600074e+05   2.378387830169488e-01   4.327886670870352e-01   2.073518396192604e-01
2028-237T00:05:15.888364   1.209701574306590e+06  -3.169548013378999e+05  -2.266018230772996e+05   2.272051781493461e-01   4.346616744674868e-01   2.102952601186568e-01
2028-238T00:05:15.888364   1.228860448950329e+06  -2.793193202042856e+05  -2.083074808800743e+05   2.162181320867445e-01   4.365179885453980e-01   2.131667585409820e-01
2028-239T00:05:15.888364   1.247050911339829e+06  -2.415284438120757e+05  -1.897708680316376e+05   2.047762064540609e-01   4.382366342702009e-01   2.158902978824611e-01
2028-240T00:05:15.888364   1.264231342743665e+06  -2.035999265304081e+05  -1.710081244715503e+05   1.928346779102635e-01   4.396812406319542e-01   2.183888510015847e-01
2028-241T00:05:15.888364   1.280358406774640e+06  -1.655632581627234e+05  -1.520417757094236e+05   1.803964985867557e-01   4.407189554257718e-01   2.205926060089986e-01
2028-242T00:05:15.888364   1.295390623927687e+06  -1.274588489589578e+05  -1.328999161921749e+05   1.674995817283785e-01   4.412309691687784e-01   2.224428021660290e-01
2028-243T00:05:15.888364   1.309290876542337e+06  -8.933660631841898e+04  -1.136152032506311e+05   1.542053124743660e-01   4.411165316084698e-01   2.238925485995174e-01
2028-244T00:05:15.888364   1.322028054353463e+06  -5.125434102118359e+04  -9.422385392737892e+04   1.405902774671451e-01   4.402933488993749e-01   2.249061712543246e-01
2028-245T00:05:15.888364   1.333578131046450e+06  -1.327620642313975e+04  -7.476471990119545e+04   1.267412778292598e-01   4.386967410263723e-01   2.254581931762918e-01
2028-246T00:05:15.888364   1.343924925737326e+06   2.452878944600959e+04  -5.527844514537544e+04   1.127528739321691e-01   4.362789408746102e-01   2.255324854836578e-01
2028-247T00:05:15.888364   1.353060729921621e+06   6.208823484963606e+04  -3.580668580645368e+04   9.872658785546674e-02   4.330089340497132e-01   2.251216541963960e-01
2028-248T00:05:15.888364   1.360986908188574e+06   9.932776273284106e+04  -1.639138084823036e+04   8.477095902877224e-02   4.288724354733335e-01   2.242264283133421e-01
2028-249T00:05:15.888364   1.367714508294784e+06   1.361724721673948e+05   2.925913793348307e+03   7.100152504208489e-02   4.238711422201106e-01   2.228547642945261e-01
2028-250T00:05:15.888364   1.373264823553605e+06   1.725482289571549e+05   2.210459944748451e+04   5.753953018531247e-02   4.180206568134328e-01   2.210206614462263e-01
2028-251T00:05:15.888364   1.377669753238599e+06   2.083827432663951e+05   4.110550929051275e+04   4.450849010220474e-02   4.113475992710879e-01   2.187431448035817e-01
2028-252T00:05:15.888364   1.380971789628250e+06   2.436064202385686e+05   5.989132489032022e+04   3.202925685121955e-02   4.038875510717234e-01   2.160460171377859e-01
2028-253T00:05:15.888364   1.383223591669571e+06   2.781531237035756e+05   7.842701219973250e+04   2.021579984141454e-02   3.956852306227298e-01   2.129585254190972e-01
2028-254T00:05:15.888364   1.384487298212796e+06   3.119610561008145e+05   9.668034143194849e+04   9.173548379711538e-03   3.867968895193208e-01   2.095165550161130e-01
2028-255T00:05:15.888364   1.384833805070509e+06   3.449739099867184e+05   1.146225185160465e+05  -1.000041264248872e-03   3.772940593533273e-01   2.057639833189786e-01
2028-256T00:05:15.888364   1.384342110305306e+06   3.771423788721948e+05   1.322289383051253e+05  -1.021492937379623e-02   3.672680769045128e-01   2.017541631009629e-01
2028-257T00:05:15.888364   1.383098608997621e+06   4.084260853677311e+05   1.494800730788109e+05  -1.839068472637284e-02   3.568351691581330e-01   1.975515349001389e-01
2028-258T00:05:15.888364   1.381195996682918e+06   4.387959480444526e+05   1.663624909018423e+05  -2.546373517327684e-02   3.461412700907803e-01   1.932328733225472e-01
2028-258T17:25:15.888713   1.379466612171814e+06   4.601522560851679e+05   1.783221859951204e+05  -2.986589768246047e-02   3.383545803718595e-01   1.900912723662230e-01

META_START
OBJECT_NAME          = RST 103026
OBJECT_ID            = 211
CENTER_NAME          = Earth
REF_FRAME            = EME2000
TIME_SYSTEM          = UTC
START_TIME           = 2028-258T17:25:15.888713
USEABLE_START_TIME   = 2028-258T17:25:15.888713
USEABLE_STOP_TIME    = 2028-293T10:45:15.889062
STOP_TIME            = 2028-293T10:45:15.889062
INTERPOLATION        = Lagrange
INTERPOLATION_DEGREE = 5
META_STOP

2028-258T17:25:15.888713   1.379466612171814e+06   4.601522560851679e+05   1.783221859951204e+05  -2.986589768246047e-02   3.383545803718595e-01   1.900912723662230e-01
2028-259T17:25:15.888713   1.376656863743793e+06   4.889221612160798e+05   1.945594019626368e+05  -3.498924107634008e-02   3.276431961656314e-01   1.857852031503944e-01
2028-260T17:25:15.888713   1.373451300279602e+06   5.167769830573829e+05   2.104298700699599e+05  -3.904533172064153e-02   3.172091670804198e-01   1.816178296586896e-01
2028-261T17:25:15.888713   1.369936600781969e+06   5.437498547559348e+05   2.259494306300169e+05  -4.217483142847041e-02   3.072590885033160e-01   1.776745584288942e-01
2028-262T17:25:15.888713   1.366184078391872e+06   5.698900816172112e+05   2.411402068694234e+05  -4.459114670692592e-02   2.979568315272982e-01   1.740137549874477e-01
2028-263T17:25:15.888713   1.362244270992442e+06   5.952581168192254e+05   2.560277254920805e+05  -4.655554843122497e-02   2.893918098121146e-01   1.706541843926618e-01
2028-264T17:25:15.888713   1.358144580734598e+06   6.199182871321129e+05   2.706372672558447e+05  -4.833454453659250e-02   2.815636019239924e-01   1.675718028128641e-01
2028-265T17:25:15.888713   1.353890759724892e+06   6.439312227096084e+05   2.849904413376533e+05  -5.015644604359620e-02   2.743903443061788e-01   1.647078119228330e-01
